{
    "links": {
        "self": "http://www.neowsapp.com/rest/v1/neo/3792436?api_key=iIulBulltgU6a56xZRHN4H3l9WmuAYTsLGpBGhQ2"
    },
    "id": "3792436",
    "neo_reference_id": "3792436",
    "name": "(2017 XS61)",
    "designation": "2017 XS61",
    "nasa_jpl_url": "http://ssd.jpl.nasa.gov/sbdb.cgi?sstr=3792436",
    "absolute_magnitude_h": 23.1,
    "estimated_diameter": {
        "kilometers": {
            "estimated_diameter_min": 0.063760979,
            "estimated_diameter_max": 0.1425738833
        },
        "meters": {
            "estimated_diameter_min": 63.7609789875,
            "estimated_diameter_max": 142.5738833281
        },
        "miles": {
            "estimated_diameter_min": 0.0396192233,
            "estimated_diameter_max": 0.0885912765
        },
        "feet": {
            "estimated_diameter_min": 209.1895703015,
            "estimated_diameter_max": 467.7620993781
        }
    },
    "is_potentially_hazardous_asteroid": false,
    "close_approach_data": [
        {
            "close_approach_date": "2017-12-13",
            "close_approach_date_full": "2017-Dec-13 00:30",
            "epoch_date_close_approach": 1513125000000,
            "relative_velocity": {
                "kilometers_per_second": "28.4313236612",
                "kilometers_per_hour": "102352.7651802905",
                "miles_per_hour": "63598.0278977199"
            },
            "miss_distance": {
                "astronomical": "0.0997150627",
                "lunar": "38.7891593903",
                "kilometers": "14917160.986836449",
                "miles": "9269094.0236190362"
            },
            "orbiting_body": "Earth"
        }
    ],
    "orbital_data": {
        "orbit_id": "3",
        "orbit_determination_date": "2017-12-23 06:24:39",
        "first_observation_date": "2017-12-15",
        "last_observation_date": "2017-12-23",
        "data_arc_in_days": 8,
        "observations_used": 38,
        "orbit_uncertainty": "9",
        "minimum_orbit_intersection": ".0871717",
        "jupiter_tisserand_invariant": "3.921",
        "epoch_osculation": "2458103.5",
        "eccentricity": ".3245588418473995",
        "semi_major_axis": "1.581100213100639",
        "inclination": "52.8378938981799",
        "ascending_node_longitude": "259.6177296709277",
        "orbital_period": "726.1686950869354",
        "perihelion_distance": "1.067940159092019",
        "perihelion_argument": "169.9474026258637",
        "aphelion_distance": "2.094260267109258",
        "perihelion_time": "2458092.477217764401",
        "mean_anomaly": "5.464572669771417",
        "mean_motion": ".4957525743476198",
        "equinox": "J2000",
        "orbit_class": {
            "orbit_class_type": "AMO",
            "orbit_class_description": "Near-Earth asteroid orbits similar to that of 1221 Amor",
            "orbit_class_range": "1.017 AU < q (perihelion) < 1.3 AU"
        }
    },
    "is_sentry_object": false
}